LEMUR-2-AMANDA-SVANTE   
1 48269U 21034B   26068.77637527  .00030872  00000+0  11134-2 0  9996
2 48269  97.5829 144.8625 0002703 205.4721 154.6385 15.28469003265849
STARLINK-32498          
1 61966U 24210H   26068.58512512  .00022434  00000+0  82165-3 0  9997
2 61966  43.0044 165.7411 0001894 285.7197  74.3445 15.27605242 75060
